157P-B/Tritton,e,12.4249,153.8868,287.1980,3.102664,0.1803441,0.49992627,165.4887,03/14.0/2025,2000,g 15.7,4.0
# From MPEC 2025-CE3
158P/Kowal-LINEAR,e,7.4195,124.6921,227.0517,5.662752,0.0731413,0.11794474,68.7900,03/14.0/2025,2000,g  9.0,4.0
# From MPEC 2024-DC6
159P/LONEOS,e,23.4858,54.9392,4.7157,5.854713,0.0695738,0.38264441,172.8091,03/14.0/2025,2000,g 10.0,4.0
# From MPEC 2022-K19
160P/LINEAR,e,15.5959,333.3528,12.7859,3.779379,0.1341447,0.52507455,258.8294,03/14.0/2025,2000,g 15.5,2.0
# From MPC 75721
161P/Hartley-IRAS,e,95.8179,1.5205,47.0708,7.714372,0.0459995,0.83579779,331.2968,03/14.0/2025,2000,g  8.5,6.0
# From MPEC 2025-A40
162P/SidingSpring,e,27.5551,30.8796,357.2354,3.091870,0.1812894,0.58297362,282.0809,03/14.0/2025,2000,g 12.0,4.0
# From MPEC 2021-S45
163P/NEAT,e,12.7213,102.0731,349.6238,3.761383,0.1351085,0.45347367,276.2471,03/14.0/2025,2000,g 14.5,4.0
# From MPEC 2024-TD8
164P/Christensen,e,16.2773,88.2694,325.9546,3.651202,0.1412701,0.54122030,349.4883,03/14.0/2025,2000,g 11.0,4.0
# From MPC 75721
165P/LINEAR,e,15.9067,0.6974,125.8514,17.81395,0.0131088,0.61910847,118.5213,03/14.0/2025,2000,g 11.5,2.0
# From MPC 75722
166P/NEAT,e,15.3789,64.4338,321.8414,13.83861,0.0191454,0.38316581,159.1888,03/14.0/2025,2000,g  5.5,4.0
# From MPEC 2023-J29
167P/CINEOS,e,19.0763,295.8327,344.5049,16.25425,0.0150402,0.26783871,131.5987,03/14.0/2025,2000,g  9.5,2.0
# From MPEC 2023-J29
168P/Hergenrother,e,21.5957,355.3933,15.0997,3.586702,0.1450979,0.62130969,296.4137,03/14.0/2025,2000,g 15.5,4.0
# From MPEC 2023-J95
169P/NEAT,e,11.2879,176.0647,218.1164,2.603578,0.2346109,0.76809761,229.4867,03/14.0/2025,2000,g 16.0,2.0
# From MPEC 2025-CE3
170P/Christensen,e,10.1265,142.6427,224.8158,4.196229,0.1146609,0.30522596,80.0314,03/14.0/2025,2000,g 12.0,4.0
# From MPC102102
171P/Spahr,e,21.9507,101.7011,347.0923,3.551880,0.1472369,0.50271655,331.2806,03/14.0/2025,2000,g 13.5,4.0
# From MPEC 2025-EG2
172P/Yeung,e,11.2236,30.8824,208.9095,4.222992,0.1135726,0.20480415,333.4681,03/14.0/2025,2000,g 13.0,4.0
# From MPEC 2023-N01
173P/Mueller,e,16.4933,100.3464,29.2660,5.714942,0.0721417,0.26233795,85.2992,03/14.0/2025,2000,g  7.5,4.0
# From MPC 92985
174P/Echeclus,e,4.3413,173.3315,163.4439,10.75913,0.0279279,0.45501712,100.9592,03/14.0/2025,2000,g  9.4,2.0
# From MPC114608
175P/Hergenrother,e,4.9246,109.8417,74.7877,3.688571,0.1391287,0.37658880,285.1471,03/14.0/2025,2000,g 14.0,4.0
# From MPC 89015
176P/LINEAR,e,0.2312,345.6342,34.4726,3.195147,0.1725710,0.19191297,145.8313,03/14.0/2025,2000,g 15.1,2.0
# From MPEC 2020-L06
177P/Barnard,e,31.0074,271.8644,60.7495,24.51361,0.0081207,0.95431091,54.9748,03/14.0/2025,2000,g 15.0,4.0
# From MPEC 2024-R10
178P/Hug-Bell,e,11.0923,102.7852,297.9609,3.632768,0.1423467,0.48234935,241.9492,03/14.0/2025,2000,g 13.5,4.0
# From MPEC 2024-EF7
179P/Jedicke,e,19.8903,115.5090,297.2028,5.936933,0.0681335,0.30552644,69.2983,03/14.0/2025,2000,g  2.5,8.0
# From MPEC 2024-F34
180P/NEAT,e,16.8622,84.5599,94.6068,3.867863,0.1295679,0.35377301,79.1526,03/14.0/2025,2000,g 11.0,4.0
# From MPC 89012
181P/Shoemaker-Levy,e,17.4766,35.4364,336.2960,3.878933,0.1290136,0.69989777,149.7322,03/14.0/2025,2000,g 11.5,4.0
# From MPEC 2024-UQ8
182P/LONEOS,e,16.2316,72.4593,54.2004,2.948860,0.1946359,0.66389349,201.6882,03/14.0/2025,2000,g 18.0,4.0
# From MPEC 2024-VJ2
183P/Korlevic-Juric,e,18.7378,3.6197,163.0579,4.704450,0.0965919,0.10258539,271.1416,03/14.0/2025,2000,g 12.5,2.0
# From MPEC 2020-W26
184P/Lovas,e,4.5705,173.2699,186.5646,3.800493,0.1330283,0.54991183,212.9057,03/14.0/2025,2000,g 13.5,4.0
# From MPEC 2024-F91
185P/Petriew,e,14.0113,214.1209,181.9182,3.099542,0.1806167,0.69948605,110.2067,03/14.0/2025,2000,g 15.0,4.0
# From MPEC 2022-X67
186P/Garradd,e,28.6426,325.9383,268.6328,4.854265,0.0921550,0.12398393,210.0909,03/14.0/2025,2000,g  7.5,4.0
# From MPEC 2020-SI8
187P/LINEAR,e,13.6646,109.8425,131.4757,4.552802,0.1014579,0.15570685,252.8288,03/14.0/2025,2000,g  9.0,4.0
# From MPEC 2023-J29
188P/LINEAR-Mueller,e,10.5244,358.9168,26.8205,4.365600,0.1080533,0.41675598,317.2932,03/14.0/2025,2000,g 11.5,4.0
# From MPEC 2022-QD9
189P/NEAT,e,20.1152,281.6797,16.1922,2.940711,0.1954454,0.59018636,181.3537,03/14.0/2025,2000,g 19.0,4.0
# From MPEC 2025-EB9
190P/Mueller,e,2.1746,335.4936,50.5335,4.228545,0.1133490,0.52241016,9.0520,03/14.0/2025,2000,g 13.0,4.0
# From MPEC 2024-TD8
191P/McNaught,e,8.8395,98.1793,284.2705,3.640610,0.1418871,0.38524147,206.4032,03/14.0/2025,2000,g 13.0,4.0
# From MPEC 2025-EB9
192P/Shoemaker-Levy,e,24.5827,51.5968,313.0580,6.460569,0.0600203,0.77345854,17.6145,03/14.0/2025,2000,g 15.0,4.0
# From MPEC 2024-R10
193P/LINEAR-NEAT,e,10.6797,335.1869,8.1252,3.579320,0.1455470,0.39267375,188.9148,03/14.0/2025,2000,g 14.0,4.0
# From MPEC 2024-GJ3
194P/LINEAR,e,11.8039,349.5160,128.6042,4.122291,0.1177595,0.56337891,47.5394,03/14.0/2025,2000,g 16.0,4.0
# From MPEC 2025-EG2
195P/Hill,e,36.4186,243.1038,250.5545,6.448407,0.0601901,0.31134786,351.3171,03/14.0/2025,2000,g  8.5,4.0
# From MPEC 2024-GJ3
196P/Tichy,e,19.2966,24.1229,12.1324,3.805989,0.1327403,0.42762689,115.0508,03/14.0/2025,2000,g 13.5,4.0
# From MPEC 2023-UR6
197P/LINEAR,e,25.4180,66.2329,189.8978,2.904895,0.1990712,0.62082555,164.9123,03/14.0/2025,2000,g 16.5,2.0
# From MPEC 2024-VJ2
198P/ODAS,e,1.3400,358.4692,69.0477,3.591873,0.1447847,0.44462561,330.0135,03/14.0/2025,2000,g 12.5,4.0
# From MPEC 2024-Q20
199P/Shoemaker,e,24.9389,92.3457,191.7652,5.874470,0.0692231,0.50450205,40.4666,03/14.0/2025,2000,g 10.0,4.0
# From MPEC 2022-C56
200P/Larsen,e,12.0957,234.8077,134.3916,4.952703,0.0894212,0.33132381,183.7524,03/14.0/2025,2000,g  9.0,4.0
# From MPC 93588
201P/LONEOS,e,5.7377,41.5294,19.7959,3.354651,0.1604106,0.63755393,222.3584,03/14.0/2025,2000,g 14.0,4.0
# From MPEC 2025-EB9
202P/Scotti,e,2.1418,177.3008,274.4965,4.099518,0.1187422,0.25117177,35.7034,03/14.0/2025,2000,g 13.5,4.0
# From MPEC 2025-A40
203P/Korlevic,e,2.9758,290.2228,154.9225,4.668402,0.0977129,0.31640867,179.0794,03/14.0/2025,2000,g 14.5,2.0
# From MPEC 2024-JU4
204P/LINEAR-NEAT,e,6.5978,108.4738,356.7205,3.584050,0.1452590,0.48828915,123.1472,03/14.0/2025,2000,g 14.0,4.0
# From MPEC 2023_O39
205P/Giacobini,e,15.3008,179.6226,154.1628,3.543083,0.1477856,0.56721035,170.8769,03/14.0/2025,2000,g 13.0,4.0
# From MPC 75725
206P/Barnard-Boattini,e,33.6209,202.3448,189.5747,3.491328,0.1510839,0.55120418,222.0728,03/14.0/2025,2000,g 19.0,4.0
# From MPEC 2024-NE4
207P/NEAT,e,10.1993,198.1449,273.0170,3.885756,0.1286740,0.75851918,52.3888,03/14.0/2025,2000,g 16.0,4.0
# From MPEC 2025-CE3
208P/McMillan,e,4.4121,36.3356,310.7233,4.039134,0.1214148,0.37391280,24.5177,03/14.0/2025,2000,g 12.5,4.0
# From MPEC 2024-TD8
209P/LINEAR,e,21.2825,62.7673,152.4830,2.958006,0.1937339,0.67402028,46.9819,03/14.0/2025,2000,g 17.0,2.0
# From MPC105242
210P/Christensen,e,10.2821,93.8252,345.9141,3.160992,0.1753756,0.83407815,315.5045,03/14.0/2025,2000,g 13.5,4.0
# From MPEC 2024-JU4
211P/Hill,e,18.9241,117.1015,4.3416,3.548852,0.1474254,0.34445994,131.3454,03/14.0/2025,2000,g 12.5,4.0
# From MPEC 2024-GJ3
212P/NEAT,e,22.1490,97.9720,14.0509,3.902522,0.1278457,0.58674678,41.2765,03/14.0/2025,2000,g 17.0,2.0
# From MPEC 2025-A40
213P/VanNess,e,10.3974,311.0737,6.2324,3.353741,0.1604759,0.40906902,78.2086,03/14.0/2025,2000,g 10.5,4.0
# From MPC 76570
213P-B/Van Ness,e,10.3598,5.5302,311.7658,3.353585,0.1604871,0.40920944,78.0775,03/14.0/2025,2000,g 17.0,4.0
# From MPC 76570
213P-C/Van Ness,e,10.3571,5.5076,311.7710,3.352947,0.1605329,0.40906001,78.3660,03/14.0/2025,2000,g 17.5,4.0
# From MPC 92986
214P/LINEAR,e,15.1915,348.2125,190.1207,3.616658,0.1432989,0.48618894,128.9288,03/14.0/2025,2000,g 13.0,4.0
# From MPEC 2025-EB9
215P/NEAT,e,10.5764,56.6763,262.2876,4.335472,0.1091816,0.16496720,212.4340,03/14.0/2025,2000,g 11.0,4.0
# From MPEC 2024-N80
216P/LINEAR,e,9.0617,359.7863,151.7594,3.859999,0.1299641,0.44897196,56.1498,03/14.0/2025,2000,g 13.0,4.0
# From MPEC 2025-CE3
217P/LINEAR,e,12.8655,125.3716,247.0357,3.944288,0.1258204,0.68907633,350.9480,03/14.0/2025,2000,g 12.0,4.0
# From MPEC 2022-K19
218P/LINEAR,e,2.7252,174.7500,61.2815,3.064052,0.1837637,0.63092269,294.7981,03/14.0/2025,2000,g 16.0,4.0
# From MPEC 2025-CE3
219P/LINEAR,e,11.5312,230.9433,107.8278,3.653337,0.1411463,0.35515757,55.5299,03/14.0/2025,2000,g 11.0,4.0
# From MPEC 2024-A43
220P/McNaught,e,8.1211,150.0936,180.5912,3.119996,0.1788435,0.50042064,278.2422,03/14.0/2025,2000,g 15.0,4.0
# From MPEC 2022-UY9
221P/LINEAR,e,11.1742,228.3463,40.1382,3.397059,0.1574162,0.51682123,183.5198,03/14.0/2025,2000,g 14.5,4.0
# From MPC 92277
222P/LINEAR,e,5.0967,6.7621,346.2795,2.896785,0.1999078,0.71476413,60.9938,03/14.0/2025,2000,g 20.0,4.0
# From MPEC 2023-A50
223P/Skiff,e,27.0063,346.7113,37.9799,4.158169,0.1162387,0.41631614,259.7205,03/14.0/2025,2000,g 12.0,4.0
# From MPEC 2024-L77
224P/LINEAR-NEAT,e,13.3026,40.0412,16.8058,3.446897,0.1540145,0.40565403,137.9678,03/14.0/2025,2000,g 15.5,4.0
# From MPEC 2024-F91
225P/LINEAR,e,21.3627,14.2088,3.9076,3.647484,0.1414861,0.63822430,82.6401,03/14.0/2025,2000,g 18.0,4.0
# From MPEC 2024-MB8
226P/Pigott-LINEAR-Kowalski,e,44.0452,54.0118,341.0323,3.765398,0.1348925,0.52891789,59.7444,03/14.0/2025,2000,g 12.5,4.0
# From MPEC 2024-R10
227P/Catalina-LINEAR,e,7.5076,36.8057,105.5855,3.437417,0.1546521,0.52767040,57.3292,03/14.0/2025,2000,g 16.5,2.0
# From MPEC 2022-HC2
228P/LINEAR,e,7.9151,30.9583,114.7757,4.162611,0.1160527,0.17730751,212.4825,03/14.0/2025,2000,g 14.1,4.0
# From MPEC 2025-CE3
229P/Gibbs,e,26.0972,157.8837,224.2127,3.922920,0.1268498,0.37792038,1.0436,03/14.0/2025,2000,g 13.0,4.0
# From MPEC 2024-P23
230P/LINEAR,e,15.4718,106.9282,313.5746,3.454909,0.1534791,0.54552419,167.3378,03/14.0/2025,2000,g 13.0,4.0
# From MPEC 2023-SQ0
231P/LINEAR-NEAT,e,12.2718,132.7990,43.8071,4.059794,0.1204892,0.24012692,254.6812,03/14.0/2025,2000,g 14.5,2.0
# From MPC112394
232P/Hill,e,14.6431,56.0165,53.2802,4.470382,0.1042767,0.33606737,225.8442,03/14.0/2025,2000,g 11.5,4.0
